[{"OBJECT_NAME":"CHECKMATE 1","OBJECT_ID":"2023-050G","EPOCH":"2026-03-09T16:59:32.113248","MEAN_MOTION":13.84937223,"ECCENTRICITY":0.00103941,"INCLINATION":81.0073,"RA_OF_ASC_NODE":167.3434,"ARG_OF_PERICENTER":249.5974,"MEAN_ANOMALY":110.4066,"EPHEMERIS_TYPE":0,"CLASSIFICATION_TYPE":"U","NORAD_CAT_ID":56168,"ELEMENT_SET_NO":999,"REV_AT_EPOCH":14832,"BSTAR":0.00010869362,"MEAN_MOTION_DOT":1.34e-6,"MEAN_MOTION_DDOT":0},{"OBJECT_NAME":"THOR ABLESTAR DEB","OBJECT_ID":"1961-015CQ","EPOCH":"2026-03-09T20:31:01.628544","MEAN_MOTION":13.68979156,"ECCENTRICITY":0.01924976,"INCLINATION":67.1656,"RA_OF_ASC_NODE":264.45,"ARG_OF_PERICENTER":10.2182,"MEAN_ANOMALY":350.2713,"EPHEMERIS_TYPE":0,"CLASSIFICATION_TYPE":"U","NORAD_CAT_ID":299,"ELEMENT_SET_NO":999,"REV_AT_EPOCH":21546,"BSTAR":0.0003408284,"MEAN_MOTION_DOT":2.66e-6,"MEAN_MOTION_DDOT":0}]
